TDRS 3                  
1 19548U 88091B   22355.38531106 -.00000285  00000+0  00000+0 0  9991
2 19548  13.5787 349.8740 0039014 331.2569 218.5837  1.00278440112612
HST                     
1 20580U 90037B   22356.28438799  .00003476  00000+0  18967-3 0  9995
2 20580  28.4715   3.4795 0002238 260.8096 201.8495 15.11457762594914
TDRS 5                  
1 21639U 91054B   22356.41521826  .00000094  00000+0  00000+0 0  9998
2 21639  14.2228   3.1851 0025589 349.7084  80.0324  1.00265549114942
TDRS 6                  
1 22314U 93003B   22355.45559066 -.00000282  00000+0  00000+0 0  9995
2 22314  14.1422   6.4552 0007283 143.8095  57.9091  1.00272526109635
TDRS 7                  
1 23613U 95035B   22355.79155491 -.00000189  00000+0  00000+0 0  9992
2 23613  13.9055 357.1582 0024135  50.8512  52.1450  1.00271862100383
ISS (ZARYA)             
1 25544U 98067A   22356.59436905 -.00008932  00000+0 -15123-3 0  9997
2 25544  51.6422 123.2511 0005530 175.6943 277.6446 15.49508690374406
LANDSAT 7               
1 25682U 99020A   22356.23896719  .00000416  00000+0  96150-4 0  9991
2 25682  97.9554  36.9879 0001061  91.2421 268.8916 14.59863476259967
TERRA                   
1 25994U 99068A   22356.19274091  .00000456  00000+0  10690-3 0  9995
2 25994  98.1182  63.7929 0000390 229.6774 153.3175 14.58947337223974
TDRS 8                  
1 26388U 00034A   22355.74834711 -.00000220  00000+0  00000+0 0  9999
2 26388  10.6627  41.2557 0018664 330.4551  77.3517  1.00268792 82400
TIMED                   
1 26998U 01055B   22356.18853416  .00001338  00000+0  14607-3 0  9994
2 26998  74.0724 265.5448 0000641 238.6714 121.4404 14.89027396141085
TDRS 9                  
1 27389U 02011A   22355.52943618 -.00000272  00000+0  00000+0 0  9998
2 27389   9.4177  59.1120 0026566 294.1648 225.1378  1.00268234 77677
AQUA                    
1 27424U 02022A   22356.12853191  .00000859  00000+0  19895-3 0  9999
2 27424  98.2687 296.4337 0001549  53.5994   2.4679 14.57527781 97561
TDRS 10                 
1 27566U 02055A   22355.41433476  .00000106  00000+0  00000+0 0  9992
2 27566   8.5452  48.9029 0005953 311.4194  67.7610  1.00277510 73469
SORCE                   
1 27651U 03004A   22356.05030455  .00002234  00000+0  23763-3 0  9992
2 27651  39.9944 249.5953 0022537 348.7186  11.3096 14.90542447 81081
AURA                    
1 28376U 04026A   22355.48383103  .00000896  00000+0  20881-3 0  9999
2 28376  98.2307 296.2997 0001435  87.2437 272.8926 14.57119414980465
SWIFT                   
1 28485U 04047A   22355.51540369  .00006105  00000+0  35779-3 0  9997
2 28485  20.5575  75.9828 0010467 150.3651 209.7377 15.07821563991801
THEMIS A                
1 30580U 07004A   22356.22195105 -.00000066  00000+0 -60071-1 0  9998
2 30580  12.5621 325.0827 8356084 205.0067 318.9691  0.87833213 54771
THEMIS D                
1 30797U 07004D   22355.34512799  .00000052  00000+0  00000+0 0  9999
2 30797   8.4958 313.1775 8307844 220.1998  54.0786  0.87835542 29883
THEMIS E                
1 30798U 07004E   22356.48250253  .00000015  00000+0  00000+0 0  9999
2 30798   9.6766 329.1976 8303889 206.2303  44.9504  0.87860104 54723
AIM                     
1 31304U 07015A   22355.51816486  .00013501  00000+0  60488-3 0  9998
2 31304  97.8614 282.1395 0006253  86.7401 273.4549 15.21361721859599
FGRST (GLAST)           
1 33053U 08029A   22355.34710442  .00002861  00000+0  14173-3 0  9990
2 33053  25.5843 332.2398 0011810 184.8284 175.2139 15.12816547802029
WISE                    
1 36119U 09071A   22355.51217845  .00010016  00000+0  28521-3 0  9995
2 36119  97.2198  26.2918 0002736  35.8939 324.2489 15.36293183724210
TDRS 11                 
1 39070U 13004A   22355.52592875  .00000104  00000+0  00000+0 0  9990
2 39070   2.7893 351.8578 0003700  49.2394  64.0245  1.00277014 33928
TDRS 12                 
1 39504U 14004A   22356.17603023 -.00000248  00000+0  00000+0 0  9993
2 39504   3.7182 350.8701 0001977 249.4055 232.7992  1.00266124 32686
GPM-CORE                
1 39574U 14009C   22356.56791555  .00020745  00000+0  30413-3 0  9994
2 39574  64.9997 268.0034 0010203 261.9152  98.0837 15.55531098500887
MMS 1                   
1 40482U 15011A   22352.22810934 -.00000146  00000+0  00000+0 0  9999
2 40482  29.8011  90.0094 8901285  69.5007 203.2879  0.28521590 13820
MMS 2                   
1 40483U 15011B   22356.24325943 -.00000671  00000+0  00000+0 0  9990
2 40483  29.7312  89.5017 8899830  70.0074 255.4814  0.28536623 13804
MMS 3                   
1 40484U 15011C   22356.24329416 -.00000671  00000+0  00000+0 0  9990
2 40484  29.7233  89.4576 8898582  70.0578 255.5080  0.28534637 13807
MMS 4                   
1 40485U 15011D   22352.22718315 -.00000146  00000+0  00000+0 0  9992
2 40485  29.7863  89.9721 8902304  69.5319 203.1963  0.28523493 13771
TDRS 13                 
1 42915U 17047A   22355.32115760 -.00000075  00000+0  00000+0 0  9993
2 42915   4.2246 335.4603 0013245 115.4396 103.0817  1.00270261 19570
JPSS-1                  
1 43013U 17073A   22356.48732886  .00000071  00000+0  54570-4 0  9995
2 43013  98.7362 292.2383 0000740 113.9713 246.1541 14.19537755263903
